NORAD_CAT_ID,OBJECT_NAME,OBJECT_TYPE,EPOCH,MEAN_MOTION,ECCENTRICITY,INCLINATION,RA_OF_ASC_NODE,ARG_OF_PERICENTER,MEAN_ANOMALY,BSTAR,MEAN_MOTION_DOT,MEAN_MOTION_DDOT,TLE_LINE0,TLE_LINE1,TLE_LINE2,SEMIMAJOR_AXIS,PERIOD,APOGEE,PERIGEE,DECAYED
53892.0,STARLINK-5046,PAYLOAD,2024-07-01 02:37:23,15.08839007,0.0001335,53.215,211.933,96.9052,263.2092,7.2041e-05,8.59e-06,0.0,0 STARLINK-5046,1 53892U 22119G   24183.10930501  .00000859  00000-0  72041-4 0  9999,2 53892  53.2150 211.9330 0001335  96.9052 263.2092 15.08839007 98188,6917.883,95.438,540.672,538.825,0.0
53892.0,STARLINK-5046,PAYLOAD,2024-07-01 12:09:42,15.08843448,0.0001291,53.2153,210.1508,94.7241,265.3899,0.00010739,1.422e-05,0.0,0 STARLINK-5046,1 53892U 22119G   24183.50674143  .00001422  00000-0  10739-3 0  9992,2 53892  53.2153 210.1508 0001291  94.7241 265.3899 15.08843448 98661,6917.87,95.437,540.628,538.842,0.0
53892.0,STARLINK-5046,PAYLOAD,2024-07-02 12:00:30,15.08836138,0.000129,53.215,205.6896,84.2693,275.8446,7.9664e-05,9.8e-06,0.0,0 STARLINK-5046,1 53892U 22119G   24184.50034970  .00000980  00000-0  79664-4 0  9992,2 53892  53.2150 205.6896 0001290  84.2693 275.8446 15.08836138 98393,6917.892,95.438,540.65,538.865,0.0
53892.0,STARLINK-5046,PAYLOAD,2024-07-02 18:22:02,15.08838012,0.0001283,53.2147,204.4999,83.1365,276.9773,4.8351e-05,4.82e-06,0.0,0 STARLINK-5046,1 53892U 22119G   24184.76530978  .00000482  00000-0  48351-4 0  9995,2 53892  53.2147 204.4999 0001283  83.1365 276.9773 15.08838012 98855,6917.886,95.438,540.639,538.864,0.0
53892.0,STARLINK-5046,PAYLOAD,2024-07-03 18:12:49,15.0883935,0.0001356,53.2161,200.0399,86.831,273.2838,7.1485e-06,-1.74e-06,0.0,0 STARLINK-5046,1 53892U 22119G   24185.75891112 -.00000174  00000-0  71485-5 0  9999,2 53892  53.2161 200.0399 0001356  86.8310 273.2838 15.08839350 98586,6917.882,95.438,540.685,538.809,0.0
53892.0,STARLINK-5046,PAYLOAD,2024-07-04 08:31:17,15.08841615,0.000129,53.2157,197.3637,87.4111,272.7029,5.1011e-05,5.24e-06,0.0,0 STARLINK-5046,1 53892U 22119G   24186.35506817  .00000524  00000-0  51011-4 0  9991,2 53892  53.2157 197.3637 0001290  87.4111 272.7029 15.08841615 99097,6917.875,95.437,540.633,538.848,0.0
53892.0,STARLINK-5046,PAYLOAD,2024-07-04 18:03:36,15.08842533,0.0001296,53.2159,195.5797,87.0814,273.0327,5.676e-05,6.16e-06,0.0,0 STARLINK-5046,1 53892U 22119G   24186.75250675  .00000616  00000-0  56760-4 0  9991,2 53892  53.2159 195.5797 0001296  87.0814 273.0327 15.08842533 99150,6917.873,95.437,540.634,538.841,0.0
53892.0,STARLINK-5046,PAYLOAD,2024-07-05 05:11:18,15.08841315,0.0001283,53.2157,193.498,87.1963,272.9176,0.00010018,1.307e-05,0.0,0 STARLINK-5046,1 53892U 22119G   24187.21618583  .00001307  00000-0  10018-3 0  9992,2 53892  53.2157 193.4980 0001283  87.1963 272.9176 15.08841315 98809,6917.876,95.437,540.629,538.854,0.0
53892.0,STARLINK-5046,PAYLOAD,2024-07-05 09:57:27,15.08845179,0.0001285,53.2156,192.6057,88.0097,272.1042,9.9018e-05,1.289e-05,0.0,0 STARLINK-5046,1 53892U 22119G   24187.41490305  .00001289  00000-0  99018-4 0  9991,2 53892  53.2156 192.6057 0001285  88.0097 272.1042 15.08845179 99250,6917.865,95.437,540.619,538.841,0.0
53892.0,STARLINK-5046,PAYLOAD,2024-07-05 17:54:23,15.08842312,0.0001265,53.2154,191.119,87.4262,272.6875,6.0655e-05,6.78e-06,0.0,0 STARLINK-5046,1 53892U 22119G   24187.74610544  .00000678  00000-0  60655-4 0  9992,2 53892  53.2154 191.1190 0001265  87.4262 272.6875 15.08842312 99306,6917.873,95.437,540.613,538.863,0.0
53892.0,STARLINK-5046,PAYLOAD,2024-07-06 05:02:05,15.0883797,0.00013,53.2154,189.0372,88.326,271.7881,-4.3911e-06,-3.58e-06,0.0,0 STARLINK-5046,1 53892U 22119G   24188.20978987 -.00000358  00000-0 -43911-5 0  9996,2 53892  53.2154 189.0372 0001300  88.3260 271.7881 15.08837970 98953,6917.887,95.438,540.651,538.852,0.0
53892.0,STARLINK-5046,PAYLOAD,2024-07-06 09:48:15,15.08839836,0.000132,53.2156,188.1443,93.05,267.0643,-3.3964e-06,-3.42e-06,0.0,0 STARLINK-5046,1 53892U 22119G   24188.40850828 -.00000342  00000-0 -33964-5 0  9991,2 53892  53.2156 188.1443 0001320  93.0500 267.0643 15.08839836 99404,6917.881,95.438,540.659,538.833,0.0
53892.0,STARLINK-5046,PAYLOAD,2024-07-07 06:28:15,15.08842507,0.0001337,53.2157,184.2784,93.8006,266.3139,-4.323e-06,-3.57e-06,0.0,0 STARLINK-5046,1 53892U 22119G   24189.26962506 -.00000357  00000-0 -43230-5 0  9996,2 53892  53.2157 184.2784 0001337  93.8006 266.3139 15.08842507 99116,6917.873,95.437,540.663,538.813,0.0
53892.0,STARLINK-5046,PAYLOAD,2024-07-08 06:19:03,15.08834418,0.0001322,53.2159,179.8189,93.2807,266.8336,3.747e-06,-2.28e-06,0.0,0 STARLINK-5046,1 53892U 22119G   24190.26323149 -.00000228  00000-0  37470-5 0  9997,2 53892  53.2159 179.8189 0001322  93.2807 266.8336 15.08834418 99266,6917.897,95.438,540.677,538.848,0.0
53892.0,STARLINK-5046,PAYLOAD,2024-07-08 15:51:22,15.08835853,0.0001316,53.2159,178.0348,92.6865,267.4278,1.3699e-05,-7e-07,0.0,0 STARLINK-5046,1 53892U 22119G   24190.66067144 -.00000070  00000-0  13699-4 0  9992,2 53892  53.2159 178.0348 0001316  92.6865 267.4278 15.08835853 99743,6917.893,95.438,540.668,538.848,0.0
53892.0,STARLINK-5046,PAYLOAD,2024-07-09 06:09:49,15.08840287,0.000126,53.2152,175.3591,91.9439,268.1697,5.2542e-05,5.48e-06,0.0,0 STARLINK-5046,1 53892U 22119G   24191.25682802  .00000548  00000-0  52542-4 0  9991,2 53892  53.2152 175.3591 0001260  91.9439 268.1697 15.08840287 99417,6917.88,95.438,540.616,538.873,0.0
53892.0,STARLINK-5046,PAYLOAD,2024-07-10 04:25:15,15.08829128,0.0001202,53.2143,171.1963,84.6366,275.4763,-1.5828e-05,-5.4e-06,0.0,0 STARLINK-5046,1 53892U 22119G   24192.18420194 -.00000540  00000-0 -15828-4 0  9998,2 53892  53.2143 171.1963 0001202  84.6366 275.4763 15.08829128 99559,6917.914,95.438,540.61,538.947,0.0
53892.0,STARLINK-5046,PAYLOAD,2024-07-10 07:36:01,15.08832516,0.000131,53.2148,170.6027,97.7708,262.3433,2.7093e-05,1.43e-06,0.0,0 STARLINK-5046,1 53892U 22119G   24192.31667885  .00000143  00000-0  27093-4 0  9997,2 53892  53.2148 170.6027 0001310  97.7708 262.3433 15.08832516 99996,6917.903,95.438,540.675,538.862,0.0
53892.0,STARLINK-5046,PAYLOAD,2024-07-11 07:26:48,15.08816675,0.0001531,53.2155,166.1425,101.5758,258.5406,0.0002602,3.853e-05,0.0,0 STARLINK-5046,1 53892U 22119G   24193.31028566  .00003853  00000-0  26020-3 0  9994,2 53892  53.2155 166.1425 0001531 101.5758 258.5406 15.08816675100145,6917.952,95.439,540.876,538.758,0.0
53892.0,STARLINK-5046,PAYLOAD,2024-07-12 04:06:49,15.08837669,0.0001425,53.2159,162.2733,102.5139,257.6013,8.4786e-05,1.062e-05,0.0,0 STARLINK-5046,1 53892U 22119G   24194.17140127  .00001062  00000-0  84786-4 0  9991,2 53892  53.2159 162.2733 0001425 102.5139 257.6013 15.08837669 99859,6917.888,95.438,540.738,538.767,0.0
53892.0,STARLINK-5046,PAYLOAD,2024-07-12 05:42:12,15.08838899,0.0001438,53.2159,161.9761,101.2177,258.8977,9.4972e-05,1.224e-05,0.0,0 STARLINK-5046,1 53892U 22119G   24194.23764043  .00001224  00000-0  94972-4 0  9995,2 53892  53.2159 161.9761 0001438 101.2177 258.8977 15.08838899100286,6917.884,95.438,540.744,538.754,0.0
53892.0,STARLINK-5046,PAYLOAD,2024-07-12 15:14:30,15.08840205,0.0001439,53.216,160.1922,100.8529,259.2625,0.00010828,1.436e-05,0.0,0 STARLINK-5046,1 53892U 22119G   24194.63507979  .00001436  00000-0  10828-3 0  9994,2 53892  53.2160 160.1922 0001439 100.8529 259.2625 15.08840205100341,6917.88,95.438,540.74,538.749,0.0
53892.0,STARLINK-5046,PAYLOAD,2024-07-13 03:57:35,15.08851657,0.0001377,53.2161,157.8138,98.8396,261.2752,0.00012521,1.706e-05,0.0,0 STARLINK-5046,1 53892U 22119G   24195.16499112  .00001706  00000-0  12521-3 0  9994,2 53892  53.2161 157.8138 0001377  98.8396 261.2752 15.08851657100003,6917.845,95.437,540.662,538.757,0.0
53892.0,STARLINK-5046,PAYLOAD,2024-07-13 07:08:21,15.08854571,0.0001417,53.2161,157.2183,100.4653,259.6499,0.00014897,2.085e-05,0.0,0 STARLINK-5046,1 53892U 22119G   24195.29746757  .00002085  00000-0  14897-3 0  9997,2 53892  53.2161 157.2183 0001417 100.4653 259.6499 15.08854571100443,6917.836,95.437,540.681,538.721,0.0
53892.0,STARLINK-5046,PAYLOAD,2024-07-13 21:26:50,15.08840988,0.0001447,53.2158,154.5427,87.3649,272.7509,2.8204e-06,-2.43e-06,0.0,0 STARLINK-5046,1 53892U 22119G   24195.89364104 -.00000243  00000-0  28204-5 0  9999,2 53892  53.2158 154.5427 0001447  87.3649 272.7509 15.08840988100536,6917.877,95.437,540.743,538.741,0.0
53892.0,STARLINK-5046,PAYLOAD,2024-07-14 03:48:22,15.08843308,0.0001373,53.2162,153.3532,95.6726,264.4422,2.4325e-05,9.9e-07,0.0,0 STARLINK-5046,1 53892U 22119G   24196.15859833  .00000099  00000-0  24325-4 0  9994,2 53892  53.2162 153.3532 0001373  95.6726 264.4422 15.08843308100150,6917.87,95.437,540.685,538.785,0.0
53892.0,STARLINK-5046,PAYLOAD,2024-07-14 06:59:08,15.08845901,0.0001394,53.2164,152.7579,95.1005,265.0147,4.7147e-05,4.63e-06,0.0,0 STARLINK-5046,1 53892U 22119G   24196.29107584  .00000463  00000-0  47147-4 0  9990,2 53892  53.2164 152.7579 0001394  95.1005 265.0147 15.08845901100594,6917.862,95.437,540.692,538.763,0.0
53892.0,STARLINK-5046,PAYLOAD,2024-07-15 06:49:55,15.08845223,0.000154,53.2172,148.2968,100.783,259.3336,3.8007e-05,3.17e-06,0.0,0 STARLINK-5046,1 53892U 22119G   24197.28467359  .00000317  00000-0  38007-4 0  9992,2 53892  53.2172 148.2968 0001540 100.7830 259.3336 15.08845223100321,6917.864,95.437,540.795,538.664,0.0
53892.0,STARLINK-5046,PAYLOAD,2024-07-15 21:08:25,15.08827547,0.0001434,53.2167,145.6204,90.4556,269.66,-5.7102e-05,-1.196e-05,0.0,0 STARLINK-5046,1 53892U 22119G   24197.88085162 -.00001196  00000-0 -57102-4 0  9991,2 53892  53.2167 145.6204 0001434  90.4556 269.6600 15.08827547100418,6917.918,95.438,540.775,538.791,0.0
53892.0,STARLINK-5046,PAYLOAD,2024-07-16 03:29:58,15.0883052,0.0001287,53.2165,144.4316,82.8701,277.2437,-2.2836e-05,-6.51e-06,0.0,0 STARLINK-5046,1 53892U 22119G   24198.14581059 -.00000651  00000-0 -22836-4 0  9998,2 53892  53.2165 144.4316 0001287  82.8701 277.2437 15.08830520100878,6917.909,95.438,540.665,538.884,0.0
